$$SOE
2459580.500000000, A.D. 2022-Jan-01 00:00:00.0000, 6.605253968741234E+07, 2.654838496793212E+08, -3.846418888197182E+07,
2459587.500000000, A.D. 2022-Jan-08 00:00:00.0000, 5.193094219703175E+07, 2.685939667944250E+08, -3.696061073953639E+07,
2459594.500000000, A.D. 2022-Jan-15 00:00:00.0000, 3.768952611008777E+07, 2.710844370392266E+08, -3.537176544400540E+07,
2459601.500000000, A.D. 2022-Jan-22 00:00:00.0000, 2.336105987286660E+07, 2.729489369979551E+08, -3.370124251566453E+07,
2459608.500000000, A.D. 2022-Jan-29 00:00:00.0000, 8.978650400840878E+06, 2.741834658976864E+08, -3.195293607409117E+07,
2459615.500000000, A.D. 2022-Feb-05 00:00:00.0000, -5.424475028957374E+06, 2.747863674392415E+08, -3.013101889131379E+07,
2459622.500000000, A.D. 2022-Feb-12 00:00:00.0000, -1.981518493712237E+07, 2.747583246595324E+08, -2.823991379675132E+07,
2459629.500000000, A.D. 2022-Feb-19 00:00:00.0000, -3.416065546568281E+07, 2.741023305205721E+08, -2.628426264256483E+07,
2459636.500000000, A.D. 2022-Feb-26 00:00:00.0000, -4.842857561744416E+07, 2.728236344303517E+08, -2.426889333666541E+07,
2459643.500000000, A.D. 2022-Mar-05 00:00:00.0000, -6.258734245766884E+07, 2.709296655885600E+08, -2.219878560883053E+07,
2459650.500000000, A.D. 2022-Mar-12 00:00:00.0000, -7.660624311990997E+07, 2.684299351140858E+08, -2.007903614802723E+07,
2459657.500000000, A.D. 2022-Mar-19 00:00:00.0000, -9.045562104630074E+07, 2.653359194258204E+08, -1.791482371764469E+07,
2459664.500000000, A.D. 2022-Mar-26 00:00:00.0000, -1.041070244372556E+08, 2.616609276335522E+08, -1.571137482440577E+07,
2459671.500000000, A.D. 2022-Apr-02 00:00:00.0000, -1.175333353695738E+08, 2.574199558575835E+08, -1.347393047919984E+07,
2459678.500000000, A.D. 2022-Apr-09 00:00:00.0000, -1.307088783763527E+08, 2.526295315598214E+08, -1.120771454271035E+07,
2459685.500000000, A.D. 2022-Apr-16 00:00:00.0000, -1.436095077237325E+08, 2.473075516189961E+08, -8.917904034645721E+06,
2459692.500000000, A.D. 2022-Apr-23 00:00:00.0000, -1.562126747418168E+08, 2.414731182250865E+08, -6.609601527014464E+06,
2459699.500000000, A.D. 2022-Apr-30 00:00:00.0000, -1.684974776058637E+08, 2.351463731725475E+08, -4.287809881812349E+06,
2459706.500000000, A.D. 2022-May-07 00:00:00.0000, -1.804446913991007E+08, 2.283483311460555E+08, -1.957409942917526E+06,
2459713.500000000, A.D. 2022-May-14 00:00:00.0000, -1.920367782975421E+08, 2.211007173110321E+08, 3.768588439765275E+05,
2459720.500000000, A.D. 2022-May-21 00:00:00.0000, -2.032578813892034E+08, 2.134258119516760E+08, 2.710415100322679E+06,
2459727.500000000, A.D. 2022-May-28 00:00:00.0000, -2.140938042449368E+08, 2.053463028433498E+08, 5.038849469134912E+06,
2459734.500000000, A.D. 2022-Jun-04 00:00:00.0000, -2.245319777093120E+08, 1.968851463458526E+08, 7.357935887984574E+06,
2459741.500000000, A.D. 2022-Jun-11 00:00:00.0000, -2.345614155624778E+08, 1.880654381939862E+08, 9.663640293821812E+06,
2459748.500000000, A.D. 2022-Jun-18 00:00:00.0000, -2.441726608039966E+08, 1.789102946682483E+08, 1.195212691676206E+07,
2459755.500000000, A.D. 2022-Jun-25 00:00:00.0000, -2.533577242675783E+08, 1.694427445027938E+08, 1.421976234171917E+07,
2459762.500000000, A.D. 2022-Jul-02 00:00:00.0000, -2.621100170838923E+08, 1.596856316068050E+08, 1.646311752104935E+07,
2459769.500000000, A.D. 2022-Jul-09 00:00:00.0000, -2.704242781380953E+08, 1.496615287032366E+08, 1.867896792686486E+07,
2459776.500000000, A.D. 2022-Jul-16 00:00:00.0000, -2.782964979817299E+08, 1.393926627139554E+08, 2.086429214926493E+07,
2459783.500000000, A.D. 2022-Jul-23 00:00:00.0000, -2.857238426620054E+08, 1.289008515699408E+08, 2.301626935860896E+07,
2459790.500000000, A.D. 2022-Jul-30 00:00:00.0000, -2.927045785027593E+08, 1.182074485862759E+08, 2.513227555379345E+07,
2459797.500000000, A.D. 2022-Aug-06 00:00:00.0000, -2.992379951941689E+08, 1.073332944602242E+08, 2.720987851314256E+07,
2459804.500000000, A.D. 2022-Aug-13 00:00:00.0000, -3.053243288216466E+08, 9.629867898740990E+07, 2.924683192854738E+07,
2459811.500000000, A.D. 2022-Aug-20 00:00:00.0000, -3.109646870895717E+08, 8.512331130208495E+07, 3.124106899147994E+07,
2459818.500000000, A.D. 2022-Aug-27 00:00:00.0000, -3.161609772301594E+08, 7.382629721953291E+07, 3.319069551679081E+07,
2459825.500000000, A.D. 2022-Sep-03 00:00:00.0000, -3.209158367840453E+08, 6.242612287527621E+07, 3.509398270847866E+07,
2459832.500000000, A.D. 2022-Sep-10 00:00:00.0000, -3.252325674917077E+08, 5.094064400293845E+07, 3.694935968144794E+07,
2459839.500000000, A.D. 2022-Sep-17 00:00:00.0000, -3.291150725040402E+08, 3.938708019323686E+07, 3.875540584177754E+07,
2459846.500000000, A.D. 2022-Sep-24 00:00:00.0000, -3.325677970076435E+08, 2.778201346275423E+07, 4.051084320674756E+07,
2459853.500000000, A.D. 2022-Oct-01 00:00:00.0000, -3.355956721074655E+08, 1.614139052980365E+07, 4.221452871753205E+07,
2459860.500000000, A.D. 2022-Oct-08 00:00:00.0000, -3.382040615775559E+08, 4.480528779363042E+06, 4.386544661264223E+07,
2459867.500000000, A.D. 2022-Oct-15 00:00:00.0000, -3.403987123786786E+08, -7.185873386596102E+06, 4.546270109570204E+07,
2459874.500000000, A.D. 2022-Oct-22 00:00:00.0000, -3.421857110598972E+08, -1.884372396323881E+07, 4.700550940084603E+07,
2459881.500000000, A.D. 2022-Oct-29 00:00:00.0000, -3.435714434640054E+08, -3.047952553552288E+07, 4.849319484968697E+07,
2459888.500000000, A.D. 2022-Nov-05 00:00:00.0000, -3.445625555308011E+08, -4.208036187697192E+07, 4.992517995996238E+07,
2459895.500000000, A.D. 2022-Nov-12 00:00:00.0000, -3.451659170291457E+08, -5.363388201316659E+07, 5.130097990988100E+07,
2459902.500000000, A.D. 2022-Nov-19 00:00:00.0000, -3.453885887895895E+08, -6.512828299522101E+07, 5.262019635958087E+07,
2459909.500000000, A.D. 2022-Nov-26 00:00:00.0000, -3.452377930207710E+08, -7.655229203609659E+07, 5.388251158178756E+07,
2459916.500000000, A.D. 2022-Dec-03 00:00:00.0000, -3.447208863815737E+08, -8.789514824333036E+07, 5.508768288951439E+07,
2459923.500000000, A.D. 2022-Dec-10 00:00:00.0000, -3.438453355977897E+08, -9.914658412292993E+07, 5.623553735810811E+07,
2459930.500000000, A.D. 2022-Dec-17 00:00:00.0000, -3.426186954340303E+08, -1.102968070469308E+08, 5.732596683430828E+07,
2459937.500000000, A.D. 2022-Dec-24 00:00:00.0000, -3.410485887507657E+08, -1.213364808936866E+08, 5.835892321169973E+07,
2459944.500000000, A.D. 2022-Dec-31 00:00:00.0000, -3.391426881330528E+08, -1.322567078742979E+08, 5.933441394158579E+07,
2459951.500000000, A.D. 2023-Jan-07 00:00:00.0000, -3.369086988177016E+08, -1.430490096836106E+08, 6.025249783818328E+07,
2459958.500000000, A.D. 2023-Jan-14 00:00:00.0000, -3.343543447411476E+08, -1.537053075627097E+08, 6.111328138936350E+07,
2459965.500000000, A.D. 2023-Jan-21 00:00:00.0000, -3.314873582166821E+08, -1.642179045156381E+08, 6.191691536261301E+07,
2459972.500000000, A.D. 2023-Jan-28 00:00:00.0000, -3.283154694472039E+08, -1.745794699320514E+08, 6.266359134398706E+07,
2459979.500000000, A.D. 2023-Feb-04 00:00:00.0000, -3.248463959618136E+08, -1.847830236292071E+08, 6.335353846609858E+07,
2459986.500000000, A.D. 2023-Feb-11 00:00:00.0000, -3.210878336550257E+08, -1.948219195372597E+08, 6.398702046213707E+07,
2459993.500000000, A.D. 2023-Feb-18 00:00:00.0000, -3.170474493828177E+08, -2.046898298753585E+08, 6.456433297244740E+07,
2460000.500000000, A.D. 2023-Feb-25 00:00:00.0000, -3.127328747536461E+08, -2.143807299987385E+08, 6.508580105536014E+07,
2460007.500000000, A.D. 2023-Mar-04 00:00:00.0000, -3.081517009216590E+08, -2.238888839090050E+08, 6.555177688423368E+07,
2460014.500000000, A.D. 2023-Mar-11 00:00:00.0000, -3.033114742691267E+08, -2.332088304315436E+08, 6.596263761807404E+07,
2460021.500000000, A.D. 2023-Mar-18 00:00:00.0000, -2.982196928523958E+08, -2.423353701092930E+08, 6.631878342742558E+07,
2460028.500000000, A.D. 2023-Mar-25 00:00:00.0000, -2.928838033354731E+08, -2.512635528563502E+08, 6.662063564343643E+07,
2460035.500000000, A.D. 2023-Apr-01 00:00:00.0000, -2.873111979201295E+08, -2.599886659711807E+08, 6.686863501416184E+07,
2460042.500000000, A.D. 2023-Apr-08 00:00:00.0000, -2.815092118265769E+08, -2.685062212746643E+08, 6.706324021578050E+07,
2460049.500000000, A.D. 2023-Apr-15 00:00:00.0000, -2.754851236049509E+08, -2.768119424675233E+08, 6.720492673397720E+07,
2460056.500000000, A.D. 2023-Apr-22 00:00:00.0000, -2.692461564175221E+08, -2.849017557476075E+08, 6.729418569220895E+07,
2460063.500000000, A.D. 2023-Apr-29 00:00:00.0000, -2.627994775120597E+08, -2.927717814213396E+08, 6.733152255305851E+07,
2460070.500000000, A.D. 2023-May-06 00:00:00.0000, -2.561521976052416E+08, -3.004183247119005E+08, 6.731745599242756E+07,
2460077.500000000, A.D. 2023-May-13 00:00:00.0000, -2.493113711131548E+08, -3.078378666398345E+08, 6.725251695535937E+07,
2460084.500000000, A.D. 2023-May-20 00:00:00.0000, -2.422839969572600E+08, -3.150270554503875E+08, 6.713724782424933E+07,
2460091.500000000, A.D. 2023-May-27 00:00:00.0000, -2.350770197185387E+08, -3.219826986025451E+08, 6.697220167270338E+07,
2460098.500000000, A.D. 2023-Jun-03 00:00:00.0000, -2.276973310532793E+08, -3.287017552807691E+08, 6.675794159670605E+07,
2460105.500000000, A.D. 2023-Jun-10 00:00:00.0000, -2.201517713222618E+08, -3.351813294298543E+08, 6.649504011552035E+07,
2460112.500000000, A.D. 2023-Jun-17 00:00:00.0000, -2.124471313230999E+08, -3.414186633582332E+08, 6.618407862512450E+07,
2460119.500000000, A.D. 2023-Jun-24 00:00:00.0000, -2.045901537863511E+08, -3.474111318377033E+08, 6.582564687487614E+07,
2460126.500000000, A.D. 2023-Jul-01 00:00:00.0000, -1.965875343632603E+08, -3.531562358541274E+08, 6.542034250681445E+07,
2460133.500000000, A.D. 2023-Jul-08 00:00:00.0000, -1.884459237597323E+08, -3.586515951704171E+08, 6.496877087306660E+07,
2460140.500000000, A.D. 2023-Jul-15 00:00:00.0000, -1.801719322743993E+08, -3.638949425183899E+08, 6.447154501268624E+07,
2460147.500000000, A.D. 2023-Jul-22 00:00:00.0000, -1.717721332043448E+08, -3.688841204456005E+08, 6.392928537772933E+07,
$$EOE